[{"OBJECT_NAME":"STARLINK-1814","OBJECT_ID":"2020-073AU","EPOCH":"2026-03-07T08:00:03.000384","MEAN_MOTION":15.92772958,"ECCENTRICITY":0.00081215,"INCLINATION":53.0374,"RA_OF_ASC_NODE":196.8575,"ARG_OF_PERICENTER":332.1675,"MEAN_ANOMALY":231.9701,"EPHEMERIS_TYPE":0,"CLASSIFICATION_TYPE":"U","NORAD_CAT_ID":46712,"ELEMENT_SET_NO":999,"REV_AT_EPOCH":600,"BSTAR":0.0012942608,"MEAN_MOTION_DOT":0.00455881,"MEAN_MOTION_DDOT":9.2126098e-5},{"OBJECT_NAME":"STARLINK-1955","OBJECT_ID":"2021-009J","EPOCH":"2026-03-07T08:00:03.000384","MEAN_MOTION":15.95814963,"ECCENTRICITY":0.00033156,"INCLINATION":53.0333,"RA_OF_ASC_NODE":337.1694,"ARG_OF_PERICENTER":165.359,"MEAN_ANOMALY":201.3327,"EPHEMERIS_TYPE":0,"CLASSIFICATION_TYPE":"U","NORAD_CAT_ID":47556,"ELEMENT_SET_NO":999,"REV_AT_EPOCH":589,"BSTAR":0.001320927,"MEAN_MOTION_DOT":0.00546232,"MEAN_MOTION_DDOT":0.00013434943},{"OBJECT_NAME":"STARLINK-2022","OBJECT_ID":"2021-012Z","EPOCH":"2026-03-07T08:00:03.000384","MEAN_MOTION":15.92591953,"ECCENTRICITY":0.00029822,"INCLINATION":53.0125,"RA_OF_ASC_NODE":349.6707,"ARG_OF_PERICENTER":141.7857,"MEAN_ANOMALY":194.1881,"EPHEMERIS_TYPE":0,"CLASSIFICATION_TYPE":"U","NORAD_CAT_ID":47643,"ELEMENT_SET_NO":999,"REV_AT_EPOCH":599,"BSTAR":0.0014786903,"MEAN_MOTION_DOT":0.00514792,"MEAN_MOTION_DDOT":0.00011527869},{"OBJECT_NAME":"WILDTRACKCUBE-SIMBA","OBJECT_ID":"2021-022K","EPOCH":"2026-03-06T07:01:53.275872","MEAN_MOTION":16.39544551,"ECCENTRICITY":0.0005874,"INCLINATION":97.3721,"RA_OF_ASC_NODE":347.4784,"ARG_OF_PERICENTER":201.7073,"MEAN_ANOMALY":158.3978,"EPHEMERIS_TYPE":0,"CLASSIFICATION_TYPE":"U","NORAD_CAT_ID":47941,"ELEMENT_SET_NO":999,"REV_AT_EPOCH":27530,"BSTAR":0.00074904122,"MEAN_MOTION_DOT":0.0875915,"MEAN_MOTION_DDOT":2.64013e-6},{"OBJECT_NAME":"JILIN-1 GAOFEN 3D02","OBJECT_ID":"2021-061C","EPOCH":"2026-03-06T15:05:28.925664","MEAN_MOTION":16.23196194,"ECCENTRICITY":0.00068439,"INCLINATION":97.287,"RA_OF_ASC_NODE":146.4783,"ARG_OF_PERICENTER":264.2219,"MEAN_ANOMALY":95.8292,"EPHEMERIS_TYPE":0,"CLASSIFICATION_TYPE":"U","NORAD_CAT_ID":49005,"ELEMENT_SET_NO":999,"REV_AT_EPOCH":26032,"BSTAR":0.0010367386,"MEAN_MOTION_DOT":0.02509897,"MEAN_MOTION_DDOT":2.383541e-6},{"OBJECT_NAME":"LYNK TOWER 1","OBJECT_ID":"2022-033F","EPOCH":"2026-03-07T06:14:11.040864","MEAN_MOTION":16.15200296,"ECCENTRICITY":0.00063174,"INCLINATION":97.254,"RA_OF_ASC_NODE":171.7857,"ARG_OF_PERICENTER":219.2847,"MEAN_ANOMALY":140.7982,"EPHEMERIS_TYPE":0,"CLASSIFICATION_TYPE":"U","NORAD_CAT_ID":52162,"ELEMENT_SET_NO":999,"REV_AT_EPOCH":22085,"BSTAR":0.00088314973,"MEAN_MOTION_DOT":0.01148068,"MEAN_MOTION_DDOT":0.00092510602},{"OBJECT_NAME":"STARLINK-3767","OBJECT_ID":"2022-045AX","EPOCH":"2026-03-06T17:56:42.101664","MEAN_MOTION":16.06222868,"ECCENTRICITY":0.00016027,"INCLINATION":53.2112,"RA_OF_ASC_NODE":187.1994,"ARG_OF_PERICENTER":166.3267,"MEAN_ANOMALY":193.7812,"EPHEMERIS_TYPE":0,"CLASSIFICATION_TYPE":"U","NORAD_CAT_ID":52376,"ELEMENT_SET_NO":999,"REV_AT_EPOCH":21569,"BSTAR":0.0022895247,"MEAN_MOTION_DOT":0.01689011,"MEAN_MOTION_DDOT":0.001959282},{"OBJECT_NAME":"NUSAT-28 (ALICE LEE)","OBJECT_ID":"2022-057R","EPOCH":"2026-03-07T08:00:11.354400","MEAN_MOTION":15.99983938,"ECCENTRICITY":0.00079965,"INCLINATION":97.5019,"RA_OF_ASC_NODE":215.985,"ARG_OF_PERICENTER":285.8861,"MEAN_ANOMALY":74.1535,"EPHEMERIS_TYPE":0,"CLASSIFICATION_TYPE":"U","NORAD_CAT_ID":52747,"ELEMENT_SET_NO":999,"REV_AT_EPOCH":21167,"BSTAR":0.0013966762,"MEAN_MOTION_DOT":0.00706866,"MEAN_MOTION_DDOT":0.00023019558},{"OBJECT_NAME":"STARLINK-4038","OBJECT_ID":"2022-083U","EPOCH":"2026-03-07T08:00:03.000384","MEAN_MOTION":15.93380675,"ECCENTRICITY":0.00092672,"INCLINATION":53.204,"RA_OF_ASC_NODE":132.195,"ARG_OF_PERICENTER":3.3207,"MEAN_ANOMALY":98.1421,"EPHEMERIS_TYPE":0,"CLASSIFICATION_TYPE":"U","NORAD_CAT_ID":53150,"ELEMENT_SET_NO":999,"REV_AT_EPOCH":590,"BSTAR":0.00085136939,"MEAN_MOTION_DOT":0.00308947,"MEAN_MOTION_DDOT":4.7756774e-5},{"OBJECT_NAME":"CZ-6A DEB","OBJECT_ID":"2022-151LY","EPOCH":"2026-03-06T04:49:18.841728","MEAN_MOTION":15.95966983,"ECCENTRICITY":0.00164563,"INCLINATION":98.5906,"RA_OF_ASC_NODE":155.235,"ARG_OF_PERICENTER":295.8048,"MEAN_ANOMALY":64.1526,"EPHEMERIS_TYPE":0,"CLASSIFICATION_TYPE":"U","NORAD_CAT_ID":54572,"ELEMENT_SET_NO":999,"REV_AT_EPOCH":17633,"BSTAR":0.02011976,"MEAN_MOTION_DOT":0.06542974,"MEAN_MOTION_DDOT":0.064020342},{"OBJECT_NAME":"STARLINK-5092","OBJECT_ID":"2023-014T","EPOCH":"2026-03-07T08:00:03.000384","MEAN_MOTION":15.94280299,"ECCENTRICITY":0.00031343,"INCLINATION":69.9984,"RA_OF_ASC_NODE":58.6367,"ARG_OF_PERICENTER":272.7031,"MEAN_ANOMALY":95.8025,"EPHEMERIS_TYPE":0,"CLASSIFICATION_TYPE":"U","NORAD_CAT_ID":55408,"ELEMENT_SET_NO":999,"REV_AT_EPOCH":591,"BSTAR":0.0025875823,"MEAN_MOTION_DOT":0.00962972,"MEAN_MOTION_DDOT":0.00041661552},{"OBJECT_NAME":"STARLINK-6201","OBJECT_ID":"2023-064AQ","EPOCH":"2026-03-07T06:58:19.288128","MEAN_MOTION":16.03490251,"ECCENTRICITY":0.00045053,"INCLINATION":69.9951,"RA_OF_ASC_NODE":120.2239,"ARG_OF_PERICENTER":275.5068,"MEAN_ANOMALY":84.563,"EPHEMERIS_TYPE":0,"CLASSIFICATION_TYPE":"U","NORAD_CAT_ID":56486,"ELEMENT_SET_NO":999,"REV_AT_EPOCH":15562,"BSTAR":0.0022038201,"MEAN_MOTION_DOT":0.01361384,"MEAN_MOTION_DDOT":0.0010828137},{"OBJECT_NAME":"OBJECT H","OBJECT_ID":"2023-085H","EPOCH":"2026-03-07T07:20:07.083456","MEAN_MOTION":15.94233303,"ECCENTRICITY":0.00066669,"INCLINATION":97.4629,"RA_OF_ASC_NODE":192.7193,"ARG_OF_PERICENTER":292.665,"MEAN_ANOMALY":67.3919,"EPHEMERIS_TYPE":0,"CLASSIFICATION_TYPE":"U","NORAD_CAT_ID":57011,"ELEMENT_SET_NO":999,"REV_AT_EPOCH":15219,"BSTAR":0.0023137259,"MEAN_MOTION_DOT":0.0085317,"MEAN_MOTION_DDOT":0.00031773823},{"OBJECT_NAME":"SHIYAN-25 (SY-25)","OBJECT_ID":"2023-087A","EPOCH":"2026-03-06T20:12:17.301888","MEAN_MOTION":16.00933101,"ECCENTRICITY":0.00129953,"INCLINATION":96.7188,"RA_OF_ASC_NODE":126.9399,"ARG_OF_PERICENTER":245.2365,"MEAN_ANOMALY":114.7563,"EPHEMERIS_TYPE":0,"CLASSIFICATION_TYPE":"U","NORAD_CAT_ID":57047,"ELEMENT_SET_NO":999,"REV_AT_EPOCH":15843,"BSTAR":-3.2541888e-5,"MEAN_MOTION_DOT":-0.00018184,"MEAN_MOTION_DDOT":2.071521e-6},{"OBJECT_NAME":"STARLINK-6151","OBJECT_ID":"2023-090T","EPOCH":"2026-03-07T10:25:45.513120","MEAN_MOTION":16.4005672,"ECCENTRICITY":0.0006288,"INCLINATION":42.9603,"RA_OF_ASC_NODE":161.2375,"ARG_OF_PERICENTER":346.218,"MEAN_ANOMALY":13.8539,"EPHEMERIS_TYPE":0,"CLASSIFICATION_TYPE":"U","NORAD_CAT_ID":57118,"ELEMENT_SET_NO":999,"REV_AT_EPOCH":15152,"BSTAR":0.0006071,"MEAN_MOTION_DOT":0.08692959,"MEAN_MOTION_DDOT":9.3809e-6},{"OBJECT_NAME":"STARLINK-30210","OBJECT_ID":"2023-096C","EPOCH":"2026-03-06T22:41:00.000096","MEAN_MOTION":16.09716929,"ECCENTRICITY":0.00218313,"INCLINATION":42.9608,"RA_OF_ASC_NODE":152.554,"ARG_OF_PERICENTER":23.1556,"MEAN_ANOMALY":308.2824,"EPHEMERIS_TYPE":0,"CLASSIFICATION_TYPE":"U","NORAD_CAT_ID":57292,"ELEMENT_SET_NO":999,"REV_AT_EPOCH":14806,"BSTAR":0.001371494,"MEAN_MOTION_DOT":0.01351151,"MEAN_MOTION_DDOT":0.0011840384}]
