STARLINK-1814           
1 46712U 20073AU  26066.33336806  .00455881  92126-4  12943-2 0  9990
2 46712  53.0374 196.8575 0008121 332.1675 231.9701 15.92772958  6008
STARLINK-1955           
1 47556U 21009J   26066.33336806  .00546232  13435-3  13209-2 0  9999
2 47556  53.0333 337.1694 0003315 165.3590 201.3327 15.95814963  5891
STARLINK-2022           
1 47643U 21012Z   26066.33336806  .00514792  11528-3  14787-2 0  9999
2 47643  53.0125 349.6707 0002982 141.7857 194.1881 15.92591953  5996
WILDTRACKCUBE-SIMBA     
1 47941U 21022K   26065.29297773  .08759150  26401-5  74904-3 0  9997
2 47941  97.3721 347.4784 0005874 201.7073 158.3978 16.39544551275308
JILIN-1 GAOFEN 3D02     
1 49005U 21061C   26065.62880701  .02509897  23835-5  10367-2 0  9994
2 49005  97.2870 146.4783 0006843 264.2219  95.8292 16.23196194260323
LYNK TOWER 1            
1 52162U 22033F   26066.25985001  .01148068  92511-3  88315-3 0  9993
2 52162  97.2540 171.7857 0006317 219.2847 140.7982 16.15200296220851
STARLINK-3767           
1 52376U 22045AX  26065.74770951  .01689011  19593-2  22895-2 0  9998
2 52376  53.2112 187.1994 0001602 166.3267 193.7812 16.06222868215693
NUSAT-28 (ALICE LEE)    
1 52747U 22057R   26066.33346475  .00706866  23020-3  13967-2 0  9997
2 52747  97.5019 215.9850 0007996 285.8861  74.1535 15.99983938211673
STARLINK-4038           
1 53150U 22083U   26066.33336806  .00308947  47757-4  85137-3 0  9993
2 53150  53.2040 132.1950 0009267   3.3207  98.1421 15.93380675  5906
CZ-6A DEB               
1 54572U 22151LY  26065.20091252  .06542974  64020-1  20120-1 0  9990
2 54572  98.5906 155.2350 0016456 295.8048  64.1526 15.95966983176336
STARLINK-5092           
1 55408U 23014T   26066.33336806  .00962972  41662-3  25876-2 0  9991
2 55408  69.9984  58.6367 0003134 272.7031  95.8025 15.94280299  5910
STARLINK-6201           
1 56486U 23064AQ  26066.29050102  .01361384  10828-2  22038-2 0  9997
2 56486  69.9951 120.2239 0004505 275.5068  84.5630 16.03490251155622
OBJECT H                
1 57011U 23085H   26066.30563754  .00853170  31774-3  23137-2 0  9992
2 57011  97.4629 192.7193 0006666 292.6650  67.3919 15.94233303152195
SHIYAN-25 (SY-25)       
1 57047U 23087A   26065.84186692 -.00018184  20715-5 -32542-4 0  9990
2 57047  96.7188 126.9399 0012995 245.2365 114.7563 16.00933101158438
STARLINK-6151           
1 57118U 23090T   26066.43455455  .08692959  93809-5  60710-3 0  9990
2 57118  42.9603 161.2375 0006288 346.2180  13.8539 16.40056720151525
STARLINK-30210          
1 57292U 23096C   26065.94513889  .01351151  11840-2  13715-2 0  9993
2 57292  42.9608 152.5540 0021831  23.1556 308.2824 16.09716929148061
